[{"OBJECT_NAME":"STARLINK-35915","OBJECT_ID":"2025-265F","EPOCH":"2026-01-07T10:25:39.890208","MEAN_MOTION":15.40721964,"ECCENTRICITY":0.0001465,"INCLINATION":42.9985,"RA_OF_ASC_NODE":265.7475,"ARG_OF_PERICENTER":272.013,"MEAN_ANOMALY":88.0559,"EPHEMERIS_TYPE":0,"CLASSIFICATION_TYPE":"U","NORAD_CAT_ID":66521,"ELEMENT_SET_NO":999,"REV_AT_EPOCH":772,"BSTAR":0.0012293,"MEAN_MOTION_DOT":0.00051433,"MEAN_MOTION_DDOT":0},{"OBJECT_NAME":"STARLINK-35946","OBJECT_ID":"2025-265G","EPOCH":"2026-01-07T10:03:03.729024","MEAN_MOTION":15.40761592,"ECCENTRICITY":8.34e-5,"INCLINATION":42.9957,"RA_OF_ASC_NODE":265.6254,"ARG_OF_PERICENTER":273.2883,"MEAN_ANOMALY":86.7878,"EPHEMERIS_TYPE":0,"CLASSIFICATION_TYPE":"U","NORAD_CAT_ID":66522,"ELEMENT_SET_NO":999,"REV_AT_EPOCH":772,"BSTAR":0.0011379,"MEAN_MOTION_DOT":0.00047625,"MEAN_MOTION_DDOT":0},{"OBJECT_NAME":"STARLINK-35969","OBJECT_ID":"2025-265H","EPOCH":"2026-01-07T09:40:29.706240","MEAN_MOTION":15.40720269,"ECCENTRICITY":0.0001211,"INCLINATION":43.0002,"RA_OF_ASC_NODE":265.5015,"ARG_OF_PERICENTER":274.5296,"MEAN_ANOMALY":85.5422,"EPHEMERIS_TYPE":0,"CLASSIFICATION_TYPE":"U","NORAD_CAT_ID":66523,"ELEMENT_SET_NO":999,"REV_AT_EPOCH":772,"BSTAR":0.00097176,"MEAN_MOTION_DOT":0.00040532,"MEAN_MOTION_DDOT":0},{"OBJECT_NAME":"STARLINK-35687","OBJECT_ID":"2025-265J","EPOCH":"2026-01-07T03:07:55.664832","MEAN_MOTION":15.40710014,"ECCENTRICITY":0.00015684,"INCLINATION":42.9993,"RA_OF_ASC_NODE":267.7696,"ARG_OF_PERICENTER":267.2387,"MEAN_ANOMALY":92.829,"EPHEMERIS_TYPE":0,"CLASSIFICATION_TYPE":"U","NORAD_CAT_ID":66524,"ELEMENT_SET_NO":999,"REV_AT_EPOCH":767,"BSTAR":0.0010852374,"MEAN_MOTION_DOT":0.00045314,"MEAN_MOTION_DDOT":0},{"OBJECT_NAME":"STARLINK-35975","OBJECT_ID":"2025-265K","EPOCH":"2026-01-07T02:55:02.345088","MEAN_MOTION":15.40724832,"ECCENTRICITY":9.873e-5,"INCLINATION":42.9975,"RA_OF_ASC_NODE":267.7003,"ARG_OF_PERICENTER":280.3126,"MEAN_ANOMALY":79.7619,"EPHEMERIS_TYPE":0,"CLASSIFICATION_TYPE":"U","NORAD_CAT_ID":66525,"ELEMENT_SET_NO":999,"REV_AT_EPOCH":767,"BSTAR":0.0012943696,"MEAN_MOTION_DOT":0.00054195,"MEAN_MOTION_DDOT":0},{"OBJECT_NAME":"STARLINK-35932","OBJECT_ID":"2025-265L","EPOCH":"2026-01-07T10:19:12.353376","MEAN_MOTION":15.40726597,"ECCENTRICITY":0.0001806,"INCLINATION":42.9986,"RA_OF_ASC_NODE":265.71,"ARG_OF_PERICENTER":258.8972,"MEAN_ANOMALY":101.1681,"EPHEMERIS_TYPE":0,"CLASSIFICATION_TYPE":"U","NORAD_CAT_ID":66526,"ELEMENT_SET_NO":999,"REV_AT_EPOCH":772,"BSTAR":0.0012264,"MEAN_MOTION_DOT":0.00051317,"MEAN_MOTION_DDOT":0},{"OBJECT_NAME":"STARLINK-35935","OBJECT_ID":"2025-265M","EPOCH":"2026-01-07T09:56:37.598784","MEAN_MOTION":15.4071943,"ECCENTRICITY":0.0001072,"INCLINATION":42.9984,"RA_OF_ASC_NODE":265.59,"ARG_OF_PERICENTER":271.3037,"MEAN_ANOMALY":88.7696,"EPHEMERIS_TYPE":0,"CLASSIFICATION_TYPE":"U","NORAD_CAT_ID":66527,"ELEMENT_SET_NO":999,"REV_AT_EPOCH":772,"BSTAR":0.0011554,"MEAN_MOTION_DOT":0.00048297,"MEAN_MOTION_DDOT":0},{"OBJECT_NAME":"STARLINK-35928","OBJECT_ID":"2025-265N","EPOCH":"2026-01-07T09:34:02.699904","MEAN_MOTION":15.40714608,"ECCENTRICITY":0.0001214,"INCLINATION":42.9984,"RA_OF_ASC_NODE":265.47,"ARG_OF_PERICENTER":268.4151,"MEAN_ANOMALY":91.6567,"EPHEMERIS_TYPE":0,"CLASSIFICATION_TYPE":"U","NORAD_CAT_ID":66528,"ELEMENT_SET_NO":999,"REV_AT_EPOCH":772,"BSTAR":0.00097635,"MEAN_MOTION_DOT":0.00040719,"MEAN_MOTION_DDOT":0},{"OBJECT_NAME":"STARLINK-35933","OBJECT_ID":"2025-265P","EPOCH":"2026-01-07T03:04:41.911968","MEAN_MOTION":15.40668686,"ECCENTRICITY":0.00014446,"INCLINATION":43.0001,"RA_OF_ASC_NODE":267.751,"ARG_OF_PERICENTER":271.6306,"MEAN_ANOMALY":88.4385,"EPHEMERIS_TYPE":0,"CLASSIFICATION_TYPE":"U","NORAD_CAT_ID":66529,"ELEMENT_SET_NO":999,"REV_AT_EPOCH":767,"BSTAR":0.00086941927,"MEAN_MOTION_DOT":0.00036149,"MEAN_MOTION_DDOT":0},{"OBJECT_NAME":"STARLINK-35961","OBJECT_ID":"2025-265Q","EPOCH":"2026-01-07T02:58:15.011040","MEAN_MOTION":15.40723851,"ECCENTRICITY":0.0001701,"INCLINATION":42.9998,"RA_OF_ASC_NODE":267.717,"ARG_OF_PERICENTER":270.5935,"MEAN_ANOMALY":89.4726,"EPHEMERIS_TYPE":0,"CLASSIFICATION_TYPE":"U","NORAD_CAT_ID":66530,"ELEMENT_SET_NO":999,"REV_AT_EPOCH":767,"BSTAR":0.0011737485,"MEAN_MOTION_DOT":0.00049082,"MEAN_MOTION_DDOT":0},{"OBJECT_NAME":"STARLINK-35960","OBJECT_ID":"2025-265R","EPOCH":"2026-01-07T02:51:47.922624","MEAN_MOTION":15.4070267,"ECCENTRICITY":0.00015407,"INCLINATION":42.9991,"RA_OF_ASC_NODE":267.6817,"ARG_OF_PERICENTER":264.4732,"MEAN_ANOMALY":95.5949,"EPHEMERIS_TYPE":0,"CLASSIFICATION_TYPE":"U","NORAD_CAT_ID":66531,"ELEMENT_SET_NO":999,"REV_AT_EPOCH":767,"BSTAR":0.00067013316,"MEAN_MOTION_DOT":0.00027794,"MEAN_MOTION_DDOT":0},{"OBJECT_NAME":"STARLINK-35914","OBJECT_ID":"2025-265S","EPOCH":"2026-01-07T02:45:20.553408","MEAN_MOTION":15.40724728,"ECCENTRICITY":0.00018356,"INCLINATION":43.0001,"RA_OF_ASC_NODE":267.646,"ARG_OF_PERICENTER":251.977,"MEAN_ANOMALY":108.0887,"EPHEMERIS_TYPE":0,"CLASSIFICATION_TYPE":"U","NORAD_CAT_ID":66532,"ELEMENT_SET_NO":999,"REV_AT_EPOCH":767,"BSTAR":0.0010442563,"MEAN_MOTION_DOT":0.00043604,"MEAN_MOTION_DDOT":0},{"OBJECT_NAME":"STARLINK-35707","OBJECT_ID":"2025-265T","EPOCH":"2026-01-07T10:22:25.878144","MEAN_MOTION":15.40703355,"ECCENTRICITY":0.0001939,"INCLINATION":42.9985,"RA_OF_ASC_NODE":265.7284,"ARG_OF_PERICENTER":254.9373,"MEAN_ANOMALY":105.1269,"EPHEMERIS_TYPE":0,"CLASSIFICATION_TYPE":"U","NORAD_CAT_ID":66533,"ELEMENT_SET_NO":999,"REV_AT_EPOCH":772,"BSTAR":0.0013541,"MEAN_MOTION_DOT":0.00056691,"MEAN_MOTION_DDOT":0},{"OBJECT_NAME":"STARLINK-35976","OBJECT_ID":"2025-265U","EPOCH":"2026-01-07T10:09:32.014944","MEAN_MOTION":15.40726264,"ECCENTRICITY":7.6e-5,"INCLINATION":42.9981,"RA_OF_ASC_NODE":265.6584,"ARG_OF_PERICENTER":278.5878,"MEAN_ANOMALY":81.4892,"EPHEMERIS_TYPE":0,"CLASSIFICATION_TYPE":"U","NORAD_CAT_ID":66534,"ELEMENT_SET_NO":999,"REV_AT_EPOCH":772,"BSTAR":0.0013954,"MEAN_MOTION_DOT":0.00058482,"MEAN_MOTION_DDOT":0},{"OBJECT_NAME":"STARLINK-35514","OBJECT_ID":"2025-265V","EPOCH":"2026-01-07T10:06:18.590400","MEAN_MOTION":15.40658195,"ECCENTRICITY":8.42e-5,"INCLINATION":42.9923,"RA_OF_ASC_NODE":265.642,"ARG_OF_PERICENTER":90.7939,"MEAN_ANOMALY":269.3014,"EPHEMERIS_TYPE":0,"CLASSIFICATION_TYPE":"U","NORAD_CAT_ID":66535,"ELEMENT_SET_NO":999,"REV_AT_EPOCH":772,"BSTAR":0.00084344,"MEAN_MOTION_DOT":0.00035042,"MEAN_MOTION_DDOT":0},{"OBJECT_NAME":"STARLINK-35640","OBJECT_ID":"2025-265W","EPOCH":"2026-01-07T09:53:23.990208","MEAN_MOTION":15.40726968,"ECCENTRICITY":0.0001163,"INCLINATION":43.0017,"RA_OF_ASC_NODE":265.5706,"ARG_OF_PERICENTER":273.637,"MEAN_ANOMALY":86.4353,"EPHEMERIS_TYPE":0,"CLASSIFICATION_TYPE":"U","NORAD_CAT_ID":66536,"ELEMENT_SET_NO":999,"REV_AT_EPOCH":772,"BSTAR":0.0016073,"MEAN_MOTION_DOT":0.00067493,"MEAN_MOTION_DDOT":0}]
