STARLINK-35915          
1 66521U 25265F   26007.43448947  .00051433  00000+0  12293-2 0  9992
2 66521  42.9985 265.7475 0001465 272.0130  88.0559 15.40721964  7726
STARLINK-35946          
1 66522U 25265G   26007.41879316  .00047625  00000+0  11379-2 0  9991
2 66522  42.9957 265.6254 0000834 273.2883  86.7878 15.40761592  7727
STARLINK-35969          
1 66523U 25265H   26007.40312160  .00040532  00000+0  97176-3 0  9990
2 66523  43.0002 265.5015 0001211 274.5296  85.5422 15.40720269  7725
STARLINK-35687          
1 66524U 25265J   26007.13050538  .00045314  00000+0  10852-2 0  9997
2 66524  42.9993 267.7696 0001568 267.2387  92.8290 15.40710014  7672
STARLINK-35975          
1 66525U 25265K   26007.12155492  .00054195  00000+0  12944-2 0  9993
2 66525  42.9975 267.7003 0000987 280.3126  79.7619 15.40724832  7678
STARLINK-35932          
1 66526U 25265L   26007.43000409  .00051317  00000+0  12264-2 0  9993
2 66526  42.9986 265.7100 0001806 258.8972 101.1681 15.40726597  7722
STARLINK-35935          
1 66527U 25265M   26007.41432406  .00048297  00000+0  11554-2 0  9992
2 66527  42.9984 265.5900 0001072 271.3037  88.7696 15.40719430  7728
STARLINK-35928          
1 66528U 25265N   26007.39864236  .00040719  00000+0  97635-3 0  9996
2 66528  42.9984 265.4700 0001214 268.4151  91.6567 15.40714608  7720
STARLINK-35933          
1 66529U 25265P   26007.12826287  .00036149  00000+0  86942-3 0  9993
2 66529  43.0001 267.7510 0001444 271.6306  88.4385 15.40668686  7670
STARLINK-35961          
1 66530U 25265Q   26007.12378485  .00049082  00000+0  11737-2 0  9996
2 66530  42.9998 267.7170 0001701 270.5935  89.4726 15.40723851  7675
STARLINK-35960          
1 66531U 25265R   26007.11930466  .00027794  00000+0  67013-3 0  9994
2 66531  42.9991 267.6817 0001540 264.4732  95.5949 15.40702670  7675
STARLINK-35914          
1 66532U 25265S   26007.11482122  .00043604  00000+0  10443-2 0  9998
2 66532  43.0001 267.6460 0001835 251.9770 108.0887 15.40724728  7673
STARLINK-35707          
1 66533U 25265T   26007.43224396  .00056691  00000+0  13541-2 0  9993
2 66533  42.9985 265.7284 0001939 254.9373 105.1269 15.40703355  7724
STARLINK-35976          
1 66534U 25265U   26007.42328721  .00058482  00000+0  13954-2 0  9998
2 66534  42.9981 265.6584 0000760 278.5878  81.4892 15.40726264  7728
STARLINK-35514          
1 66535U 25265V   26007.42104850  .00035042  00000+0  84344-3 0  9993
2 66535  42.9923 265.6420 0000842  90.7939 269.3014 15.40658195  7727
STARLINK-35640          
1 66536U 25265W   26007.41208322  .00067493  00000+0  16073-2 0  9990
2 66536  43.0017 265.5706 0001163 273.6370  86.4353 15.40726968  7726
